start=new Date('2022-10-09T00:00:00.000Z').valueOf();
sats=[{"APOAPSIS":"574.603","CLASSIFICATION_TYPE":"U","EPOCH":"2022-10-08T19:20:54.433248","MEAN_ELEMENT_THEORY":"SGP4","MEAN_MOTION":"14.98325762","TLE_LINE1":"1 49161U 21082AH  22281.80618557  .00000048  00000-0  11847-4 0  9996","PERIOD":"96.107","ELEMENT_SET_NO":"999","SEMIMAJOR_AXIS":"6950.206","REV_AT_EPOCH":"6013","REF_FRAME":"TEME","MEAN_MOTION_DDOT":"0.0000000000000","FILE":"3596607","LAUNCH_DATE":"2021-09-14","ECCENTRICITY":"0.00036430","RCS_SIZE":"LARGE","OBJECT_ID":"2021-082AH","CENTER_NAME":"EARTH","MEAN_ANOMALY":"117.3574","EPHEMERIS_TYPE":"0","OBJECT_NAME":"STARLINK-3080","RA_OF_ASC_NODE":"200.8019","INCLINATION":"70.0024","COUNTRY_CODE":"US","MEAN_MOTION_DOT":"0.00000048","ARG_OF_PERICENTER":"242.7214","OBJECT_TYPE":"PAYLOAD","DECAY_DATE":null,"GP_ID":"214507128","TIME_SYSTEM":"UTC","BSTAR":"0.00001184700000","TLE_LINE2":"2 49161  70.0024 200.8019 0003643 242.7214 117.3574 14.98325762 60139","NORAD_CAT_ID":"49161","PERIAPSIS":"569.539","SITE":"AFWTR"},{"INCLINATION":"70.0019","OBJECT_TYPE":"PAYLOAD","DECAY_DATE":null,"COUNTRY_CODE":"US","MEAN_MOTION_DOT":"-0.00001208","ARG_OF_PERICENTER":"255.4955","EPHEMERIS_TYPE":"0","RA_OF_ASC_NODE":"200.6611","OBJECT_NAME":"STARLINK-3082","NORAD_CAT_ID":"49162","TLE_LINE2":"2 49162  70.0019 200.6611 0003167 255.4955 104.5853 14.98326299 60228","SITE":"AFWTR","PERIAPSIS":"569.868","BSTAR":"-0.00009345100000","TIME_SYSTEM":"UTC","GP_ID":"214507878","TLE_LINE1":"1 49162U 21082AJ  22281.86339945 -.00001208  00000-0 -93451-4 0  9996","MEAN_MOTION":"14.98326299","ELEMENT_SET_NO":"999","PERIOD":"96.107","APOAPSIS":"574.270","CLASSIFICATION_TYPE":"U","MEAN_ELEMENT_THEORY":"SGP4","EPOCH":"2022-10-08T20:43:17.712480","ECCENTRICITY":"0.00031670","LAUNCH_DATE":"2021-09-14","OBJECT_ID":"2021-082AJ","CENTER_NAME":"EARTH","MEAN_ANOMALY":"104.5853","RCS_SIZE":"LARGE","REF_FRAME":"TEME","MEAN_MOTION_DDOT":"0.0000000000000","SEMIMAJOR_AXIS":"6950.204","REV_AT_EPOCH":"6022","FILE":"3596607"},{"TLE_LINE2":"2 49163  70.0015 180.7413 0003256 260.0696 100.0096 14.98344663 60715","NORAD_CAT_ID":"49163","PERIAPSIS":"569.750","SITE":"AFWTR","GP_ID":"214506625","TIME_SYSTEM":"UTC","BSTAR":"-0.00017398000000","INCLINATION":"70.0015","MEAN_MOTION_DOT":"-0.00002169","COUNTRY_CODE":"US","ARG_OF_PERICENTER":"260.0696","OBJECT_TYPE":"PAYLOAD","DECAY_DATE":null,"EPHEMERIS_TYPE":"0","OBJECT_NAME":"STARLINK-3088","RA_OF_ASC_NODE":"180.7413","LAUNCH_DATE":"2021-09-14","ECCENTRICITY":"0.00032560","RCS_SIZE":"LARGE","CENTER_NAME":"EARTH","OBJECT_ID":"2021-082AK","MEAN_ANOMALY":"100.0096","SEMIMAJOR_AXIS":"6950.148","REV_AT_EPOCH":"6071","REF_FRAME":"TEME","MEAN_MOTION_DDOT":"0.0000000000000","FILE":"3596607","MEAN_MOTION":"14.98344663","TLE_LINE1":"1 49163U 21082AK  22281.83613174 -.00002169  00000-0 -17398-3 0  9995","PERIOD":"96.106","ELEMENT_SET_NO":"999","APOAPSIS":"574.276","CLASSIFICATION_TYPE":"U","EPOCH":"2022-10-08T20:04:01.782336","MEAN_ELEMENT_THEORY":"SGP4"},{"INCLINATION":"70.0009","COUNTRY_CODE":"US","ARG_OF_PERICENTER":"248.4850","MEAN_MOTION_DOT":"0.00003788","OBJECT_TYPE":"PAYLOAD","DECAY_DATE":null,"EPHEMERIS_TYPE":"0","OBJECT_NAME":"STARLINK-3106","RA_OF_ASC_NODE":"180.7571","TLE_LINE2":"2 49164  70.0009 180.7571 0003321 248.4850 111.5955 14.98330039 60723","NORAD_CAT_ID":"49164","PERIAPSIS":"569.750","SITE":"AFWTR","GP_ID":"214506378","BSTAR":"0.00032510000000","TIME_SYSTEM":"UTC","MEAN_MOTION":"14.98330039","TLE_LINE1":"1 49164U 21082AL  22281.82657610  .00003788  00000-0  32510-3 0  9997","PERIOD":"96.107","ELEMENT_SET_NO":"999","APOAPSIS":"574.366","CLASSIFICATION_TYPE":"U","EPOCH":"2022-10-08T19:50:16.175040","MEAN_ELEMENT_THEORY":"SGP4","LAUNCH_DATE":"2021-09-14","ECCENTRICITY":"0.00033210","RCS_SIZE":"LARGE","CENTER_NAME":"EARTH","OBJECT_ID":"2021-082AL","MEAN_ANOMALY":"111.5955","SEMIMAJOR_AXIS":"6950.193","REV_AT_EPOCH":"6072","REF_FRAME":"TEME","MEAN_MOTION_DDOT":"0.0000000000000","FILE":"3596607"},{"PERIOD":"96.107","ELEMENT_SET_NO":"999","MEAN_MOTION":"14.98329855","TLE_LINE1":"1 49165U 21082AM  22281.85860663 -.00004068  00000-0 -33335-3 0  9995","EPOCH":"2022-10-08T20:36:23.612832","MEAN_ELEMENT_THEORY":"SGP4","CLASSIFICATION_TYPE":"U","APOAPSIS":"574.225","RCS_SIZE":"LARGE","CENTER_NAME":"EARTH","MEAN_ANOMALY":"107.7696","OBJECT_ID":"2021-082AM","LAUNCH_DATE":"2021-09-14","ECCENTRICITY":"0.00031180","FILE":"3596607","REV_AT_EPOCH":"6026","SEMIMAJOR_AXIS":"6950.193","MEAN_MOTION_DDOT":"0.0000000000000","REF_FRAME":"TEME","ARG_OF_PERICENTER":"252.3123","COUNTRY_CODE":"US","MEAN_MOTION_DOT":"-0.00004068","DECAY_DATE":null,"OBJECT_TYPE":"PAYLOAD","INCLINATION":"70.0028","OBJECT_NAME":"STARLINK-3052","RA_OF_ASC_NODE":"200.6753","EPHEMERIS_TYPE":"0","PERIAPSIS":"569.891","SITE":"AFWTR","TLE_LINE2":"2 49165  70.0028 200.6753 0003118 252.3123 107.7696 14.98329855 60262","NORAD_CAT_ID":"49165","GP_ID":"214507628","BSTAR":"-0.00033335000000","TIME_SYSTEM":"UTC"},{"OBJECT_TYPE":"PAYLOAD","DECAY_DATE":null,"ARG_OF_PERICENTER":"257.7109","COUNTRY_CODE":"US","MEAN_MOTION_DOT":"0.00002828","INCLINATION":"70.0036","RA_OF_ASC_NODE":"180.7414","OBJECT_NAME":"STARLINK-3089","EPHEMERIS_TYPE":"0","SITE":"AFWTR","PERIAPSIS":"569.845","NORAD_CAT_ID":"49166","TLE_LINE2":"2 49166  70.0036 180.7414 0003158 257.7109 102.3696 14.98335716 60759","BSTAR":"0.00024470000000","TIME_SYSTEM":"UTC","GP_ID":"214507379","PERIOD":"96.107","ELEMENT_SET_NO":"999","TLE_LINE1":"1 49166U 21082AN  22281.83134571  .00002828  00000-0  24470-3 0  9996","MEAN_MOTION":"14.98335716","MEAN_ELEMENT_THEORY":"SGP4","EPOCH":"2022-10-08T19:57:08.269344","CLASSIFICATION_TYPE":"U","APOAPSIS":"574.235","CENTER_NAME":"EARTH","OBJECT_ID":"2021-082AN","MEAN_ANOMALY":"102.3696","RCS_SIZE":"LARGE","ECCENTRICITY":"0.00031580","LAUNCH_DATE":"2021-09-14","FILE":"3596607","MEAN_MOTION_DDOT":"0.0000000000000","REF_FRAME":"TEME","REV_AT_EPOCH":"6075","SEMIMAJOR_AXIS":"6950.175"},{"GP_ID":"214506126","TIME_SYSTEM":"UTC","BSTAR":"0.00005487100000","TLE_LINE2":"2 49167  70.0007 200.6889 0003794 241.0303 119.0476 14.98334471 60268","NORAD_CAT_ID":"49167","PERIAPSIS":"569.407","SITE":"AFWTR","EPHEMERIS_TYPE":"0","OBJECT_NAME":"STARLINK-3054","RA_OF_ASC_NODE":"200.6889","INCLINATION":"70.0007","COUNTRY_CODE":"US","ARG_OF_PERICENTER":"241.0303","MEAN_MOTION_DOT":"0.00000562","OBJECT_TYPE":"PAYLOAD","DECAY_DATE":null,"REV_AT_EPOCH":"6026","SEMIMAJOR_AXIS":"6950.179","MEAN_MOTION_DDOT":"0.0000000000000","REF_FRAME":"TEME","FILE":"3596607","LAUNCH_DATE":"2021-09-14","ECCENTRICITY":"0.00037940","RCS_SIZE":"LARGE","OBJECT_ID":"2021-082AP","MEAN_ANOMALY":"119.0476","CENTER_NAME":"EARTH","CLASSIFICATION_TYPE":"U","APOAPSIS":"574.681","EPOCH":"2022-10-08T20:29:33.981792","MEAN_ELEMENT_THEORY":"SGP4","MEAN_MOTION":"14.98334471","TLE_LINE1":"1 49167U 21082AP  22281.85386553  .00000562  00000-0  54871-4 0  9990","ELEMENT_SET_NO":"999","PERIOD":"96.107"},{"EPOCH":"2022-10-08T19:36:32.306112","MEAN_ELEMENT_THEORY":"SGP4","CLASSIFICATION_TYPE":"U","APOAPSIS":"574.214","ELEMENT_SET_NO":"999","PERIOD":"96.107","MEAN_MOTION":"14.98327209","TLE_LINE1":"1 49168U 21082AQ  22281.81704058  .00000725  00000-0  68543-4 0  9993","FILE":"3596607","REV_AT_EPOCH":"6075","SEMIMAJOR_AXIS":"6950.202","MEAN_MOTION_DDOT":"0.0000000000000","REF_FRAME":"TEME","RCS_SIZE":"LARGE","OBJECT_ID":"2021-082AQ","CENTER_NAME":"EARTH","MEAN_ANOMALY":"104.9391","LAUNCH_DATE":"2021-09-14","ECCENTRICITY":"0.00030900","OBJECT_NAME":"STARLINK-3101","RA_OF_ASC_NODE":"180.7812","EPHEMERIS_TYPE":"0","COUNTRY_CODE":"US","ARG_OF_PERICENTER":"255.1426","MEAN_MOTION_DOT":"0.00000725","DECAY_DATE":null,"OBJECT_TYPE":"PAYLOAD","INCLINATION":"69.9999","GP_ID":"214506878","BSTAR":"0.00006854300000","TIME_SYSTEM":"UTC","PERIAPSIS":"569.919","SITE":"AFWTR","TLE_LINE2":"2 49168  69.9999 180.7812 0003090 255.1426 104.9391 14.98327209 60755","NORAD_CAT_ID":"49168"},{"PERIOD":"96.106","ELEMENT_SET_NO":"999","TLE_LINE1":"1 49169U 21082AR  22281.82180086  .00000483  00000-0  48236-4 0  9992","MEAN_MOTION":"14.98350072","MEAN_ELEMENT_THEORY":"SGP4","EPOCH":"2022-10-08T19:43:23.594304","CLASSIFICATION_TYPE":"U","APOAPSIS":"574.125","MEAN_ANOMALY":"102.9284","OBJECT_ID":"2021-082AR","CENTER_NAME":"EARTH","RCS_SIZE":"LARGE","ECCENTRICITY":"0.00030630","LAUNCH_DATE":"2021-09-14","FILE":"3596607","MEAN_MOTION_DDOT":"0.0000000000000","REF_FRAME":"TEME","REV_AT_EPOCH":"5955","SEMIMAJOR_AXIS":"6950.131","DECAY_DATE":null,"OBJECT_TYPE":"PAYLOAD","COUNTRY_CODE":"US","MEAN_MOTION_DOT":"0.00000483","ARG_OF_PERICENTER":"257.1533","INCLINATION":"70.0002","RA_OF_ASC_NODE":"180.7717","OBJECT_NAME":"STARLINK-3046","EPHEMERIS_TYPE":"0","SITE":"AFWTR","PERIAPSIS":"569.867","NORAD_CAT_ID":"49169","TLE_LINE2":"2 49169  70.0002 180.7717 0003063 257.1533 102.9284 14.98350072 59558","TIME_SYSTEM":"UTC","BSTAR":"0.00004823600000","GP_ID":"214507129"},{"REF_FRAME":"TEME","MEAN_MOTION_DDOT":"0.0000000000000","SEMIMAJOR_AXIS":"6950.203","REV_AT_EPOCH":"5906","FILE":"3596492","ECCENTRICITY":"0.00036520","LAUNCH_DATE":"2021-09-14","OBJECT_ID":"2021-082AS","CENTER_NAME":"EARTH","MEAN_ANOMALY":"98.9333","RCS_SIZE":"LARGE","APOAPSIS":"574.606","CLASSIFICATION_TYPE":"U","MEAN_ELEMENT_THEORY":"SGP4","EPOCH":"2022-10-08T19:52:17.060736","TLE_LINE1":"1 49170U 21082AS  22281.82797524  .00000213  00000-0  25654-4 0  9995","MEAN_MOTION":"14.98326763","PERIOD":"96.107","ELEMENT_SET_NO":"999","TIME_SYSTEM":"UTC","BSTAR":"0.00002565400000","GP_ID":"214480924","NORAD_CAT_ID":"49170","TLE_LINE2":"2 49170  70.0019 200.7401 0003652 261.1413  98.9333 14.98326763 59062","SITE":"AFWTR","PERIAPSIS":"569.530","EPHEMERIS_TYPE":"0","RA_OF_ASC_NODE":"200.7401","OBJECT_NAME":"STARLINK-3074","INCLINATION":"70.0019","DECAY_DATE":null,"OBJECT_TYPE":"PAYLOAD","COUNTRY_CODE":"US","ARG_OF_PERICENTER":"261.1413","MEAN_MOTION_DOT":"0.00000213"}];
